CCSDS_OMM_VERS = 2.0
CREATION_DATE  = 
ORIGINATOR     = 

OBJECT_NAME    = STARLINK-36050
OBJECT_ID      = 2025-270Q
CENTER_NAME    = EARTH
REF_FRAME      = TEME
TIME_SYSTEM    = UTC
MEAN_ELEMENT_THEORY = SGP/SGP4

EPOCH          = 2025-12-15T08:00:01.999872
MEAN_MOTION    = 15.40691298
ECCENTRICITY   = .00019385
INCLINATION    = 42.9997
RA_OF_ASC_NODE = 177.7381
ARG_OF_PERICENTER = 251.7819
MEAN_ANOMALY   = 160.3774

EPHEMERIS_TYPE = 0
CLASSIFICATION_TYPE = U
NORAD_CAT_ID   = 66602
ELEMENT_SET_NO = 999
REV_AT_EPOCH   = 471
BSTAR          = .53491857E-3
MEAN_MOTION_DOT = .221E-3
MEAN_MOTION_DDOT = 0

CCSDS_OMM_VERS = 2.0
CREATION_DATE  = 
ORIGINATOR     = 

OBJECT_NAME    = STARLINK-36048
OBJECT_ID      = 2025-270R
CENTER_NAME    = EARTH
REF_FRAME      = TEME
TIME_SYSTEM    = UTC
MEAN_ELEMENT_THEORY = SGP/SGP4

EPOCH          = 2025-12-14T20:31:57.468000
MEAN_MOTION    = 15.49982090
ECCENTRICITY   = .00036397
INCLINATION    = 42.9992
RA_OF_ASC_NODE = 180.2932
ARG_OF_PERICENTER = 268.8194
MEAN_ANOMALY   = 91.2249

EPHEMERIS_TYPE = 0
CLASSIFICATION_TYPE = U
NORAD_CAT_ID   = 66603
ELEMENT_SET_NO = 999
REV_AT_EPOCH   = 457
BSTAR          = -.34237355E-2
MEAN_MOTION_DOT = -.192289E-2
MEAN_MOTION_DDOT = 0

CCSDS_OMM_VERS = 2.0
CREATION_DATE  = 
ORIGINATOR     = 

OBJECT_NAME    = STARLINK-35977
OBJECT_ID      = 2025-270S
CENTER_NAME    = EARTH
REF_FRAME      = TEME
TIME_SYSTEM    = UTC
MEAN_ELEMENT_THEORY = SGP/SGP4

EPOCH          = 2025-12-15T05:47:51.952128
MEAN_MOTION    = 15.50594552
ECCENTRICITY   = .00014478
INCLINATION    = 42.9989
RA_OF_ASC_NODE = 178.0309
ARG_OF_PERICENTER = 284.8784
MEAN_ANOMALY   = 75.1916

EPHEMERIS_TYPE = 0
CLASSIFICATION_TYPE = U
NORAD_CAT_ID   = 66604
ELEMENT_SET_NO = 999
REV_AT_EPOCH   = 473
BSTAR          = .84362823E-3
MEAN_MOTION_DOT = .49491E-3
MEAN_MOTION_DDOT = 0

CCSDS_OMM_VERS = 2.0
CREATION_DATE  = 
ORIGINATOR     = 

OBJECT_NAME    = STARLINK-36052
OBJECT_ID      = 2025-270T
CENTER_NAME    = EARTH
REF_FRAME      = TEME
TIME_SYSTEM    = UTC
MEAN_ELEMENT_THEORY = SGP/SGP4

EPOCH          = 2025-12-15T05:47:22.095744
MEAN_MOTION    = 15.50597887
ECCENTRICITY   = .00012483
INCLINATION    = 42.9988
RA_OF_ASC_NODE = 178.0285
ARG_OF_PERICENTER = 267.4948
MEAN_ANOMALY   = 92.5770

EPHEMERIS_TYPE = 0
CLASSIFICATION_TYPE = U
NORAD_CAT_ID   = 66605
ELEMENT_SET_NO = 999
REV_AT_EPOCH   = 473
BSTAR          = .11327433E-2
MEAN_MOTION_DOT = .66724E-3
MEAN_MOTION_DDOT = 0

CCSDS_OMM_VERS = 2.0
CREATION_DATE  = 
ORIGINATOR     = 

OBJECT_NAME    = STARLINK-36063
OBJECT_ID      = 2025-270U
CENTER_NAME    = EARTH
REF_FRAME      = TEME
TIME_SYSTEM    = UTC
MEAN_ELEMENT_THEORY = SGP/SGP4

EPOCH          = 2025-12-15T05:46:22.690560
MEAN_MOTION    = 15.50593862
ECCENTRICITY   = .00016024
INCLINATION    = 42.9989
RA_OF_ASC_NODE = 178.0222
ARG_OF_PERICENTER = 269.3517
MEAN_ANOMALY   = 90.7159

EPHEMERIS_TYPE = 0
CLASSIFICATION_TYPE = U
NORAD_CAT_ID   = 66606
ELEMENT_SET_NO = 999
REV_AT_EPOCH   = 473
BSTAR          = .85172846E-3
MEAN_MOTION_DOT = .49972E-3
MEAN_MOTION_DDOT = 0

CCSDS_OMM_VERS = 2.0
CREATION_DATE  = 
ORIGINATOR     = 

OBJECT_NAME    = STARLINK-35993
OBJECT_ID      = 2025-270V
CENTER_NAME    = EARTH
REF_FRAME      = TEME
TIME_SYSTEM    = UTC
MEAN_ELEMENT_THEORY = SGP/SGP4

EPOCH          = 2025-12-15T05:46:52.452768
MEAN_MOTION    = 15.50599893
ECCENTRICITY   = .00014705
INCLINATION    = 42.9991
RA_OF_ASC_NODE = 178.0256
ARG_OF_PERICENTER = 264.0151
MEAN_ANOMALY   = 96.0542

EPHEMERIS_TYPE = 0
CLASSIFICATION_TYPE = U
NORAD_CAT_ID   = 66607
ELEMENT_SET_NO = 999
REV_AT_EPOCH   = 463
BSTAR          = .12134027E-2
MEAN_MOTION_DOT = .7155E-3
MEAN_MOTION_DDOT = 0

CCSDS_OMM_VERS = 2.0
CREATION_DATE  = 
ORIGINATOR     = 

OBJECT_NAME    = STARLINK-36036
OBJECT_ID      = 2025-270W
CENTER_NAME    = EARTH
REF_FRAME      = TEME
TIME_SYSTEM    = UTC
MEAN_ELEMENT_THEORY = SGP/SGP4

EPOCH          = 2025-12-15T05:45:53.066592
MEAN_MOTION    = 15.50598473
ECCENTRICITY   = .00014992
INCLINATION    = 42.9989
RA_OF_ASC_NODE = 178.0198
ARG_OF_PERICENTER = 270.0346
MEAN_ANOMALY   = 90.0343

EPHEMERIS_TYPE = 0
CLASSIFICATION_TYPE = U
NORAD_CAT_ID   = 66608
ELEMENT_SET_NO = 999
REV_AT_EPOCH   = 457
BSTAR          = .98919184E-3
MEAN_MOTION_DOT = .58162E-3
MEAN_MOTION_DDOT = 0

CCSDS_OMM_VERS = 2.0
CREATION_DATE  = 
ORIGINATOR     = 

OBJECT_NAME    = STARLINK-36034
OBJECT_ID      = 2025-270X
CENTER_NAME    = EARTH
REF_FRAME      = TEME
TIME_SYSTEM    = UTC
MEAN_ELEMENT_THEORY = SGP/SGP4

EPOCH          = 2025-12-15T05:45:23.502240
MEAN_MOTION    = 15.50605276
ECCENTRICITY   = .0001506
INCLINATION    = 42.9987
RA_OF_ASC_NODE = 178.0171
ARG_OF_PERICENTER = 271.6445
MEAN_ANOMALY   = 88.4243

EPHEMERIS_TYPE = 0
CLASSIFICATION_TYPE = U
NORAD_CAT_ID   = 66609
ELEMENT_SET_NO = 999
REV_AT_EPOCH   = 457
BSTAR          = .1486724E-2
MEAN_MOTION_DOT = .87946E-3
MEAN_MOTION_DDOT = 0

CCSDS_OMM_VERS = 2.0
CREATION_DATE  = 
ORIGINATOR     = 

OBJECT_NAME    = STARLINK-35680
OBJECT_ID      = 2025-270Y
CENTER_NAME    = EARTH
REF_FRAME      = TEME
TIME_SYSTEM    = UTC
MEAN_ELEMENT_THEORY = SGP/SGP4

EPOCH          = 2025-12-15T05:44:53.958624
MEAN_MOTION    = 15.50601850
ECCENTRICITY   = .00014067
INCLINATION    = 42.9987
RA_OF_ASC_NODE = 178.0139
ARG_OF_PERICENTER = 277.0814
MEAN_ANOMALY   = 82.9886

EPHEMERIS_TYPE = 0
CLASSIFICATION_TYPE = U
NORAD_CAT_ID   = 66610
ELEMENT_SET_NO = 999
REV_AT_EPOCH   = 484
BSTAR          = .1503026E-2
MEAN_MOTION_DOT = .88914E-3
MEAN_MOTION_DDOT = 0

CCSDS_OMM_VERS = 2.0
CREATION_DATE  = 
ORIGINATOR     = 

OBJECT_NAME    = STARLINK-35583
OBJECT_ID      = 2025-270Z
CENTER_NAME    = EARTH
REF_FRAME      = TEME
TIME_SYSTEM    = UTC
MEAN_ELEMENT_THEORY = SGP/SGP4

EPOCH          = 2025-12-15T05:44:24.189504
MEAN_MOTION    = 15.50605937
ECCENTRICITY   = .0001559
INCLINATION    = 42.9988
RA_OF_ASC_NODE = 178.0114
ARG_OF_PERICENTER = 272.0910
MEAN_ANOMALY   = 87.9772

EPHEMERIS_TYPE = 0
CLASSIFICATION_TYPE = U
NORAD_CAT_ID   = 66611
ELEMENT_SET_NO = 999
REV_AT_EPOCH   = 484
BSTAR          = .14359272E-2
MEAN_MOTION_DOT = .84898E-3
MEAN_MOTION_DDOT = 0

CCSDS_OMM_VERS = 2.0
CREATION_DATE  = 
ORIGINATOR     = 

OBJECT_NAME    = STARLINK-36039
OBJECT_ID      = 2025-270AA
CENTER_NAME    = EARTH
REF_FRAME      = TEME
TIME_SYSTEM    = UTC
MEAN_ELEMENT_THEORY = SGP/SGP4

EPOCH          = 2025-12-15T08:00:01.999872
MEAN_MOTION    = 15.40687170
ECCENTRICITY   = .00022974
INCLINATION    = 42.9999
RA_OF_ASC_NODE = 177.6752
ARG_OF_PERICENTER = 265.6348
MEAN_ANOMALY   = 171.4199

EPHEMERIS_TYPE = 0
CLASSIFICATION_TYPE = U
NORAD_CAT_ID   = 66612
ELEMENT_SET_NO = 999
REV_AT_EPOCH   = 481
BSTAR          = .53221841E-3
MEAN_MOTION_DOT = .21984E-3
MEAN_MOTION_DDOT = 0

CCSDS_OMM_VERS = 2.0
CREATION_DATE  = 
ORIGINATOR     = 

OBJECT_NAME    = STARLINK-36037
OBJECT_ID      = 2025-270AB
CENTER_NAME    = EARTH
REF_FRAME      = TEME
TIME_SYSTEM    = UTC
MEAN_ELEMENT_THEORY = SGP/SGP4

EPOCH          = 2025-12-15T08:00:01.999872
MEAN_MOTION    = 15.40688506
ECCENTRICITY   = .0001701
INCLINATION    = 42.9997
RA_OF_ASC_NODE = 177.6152
ARG_OF_PERICENTER = 265.3697
MEAN_ANOMALY   = 196.5590

EPHEMERIS_TYPE = 0
CLASSIFICATION_TYPE = U
NORAD_CAT_ID   = 66613
ELEMENT_SET_NO = 999
REV_AT_EPOCH   = 481
BSTAR          = .53849317E-3
MEAN_MOTION_DOT = .22248E-3
MEAN_MOTION_DDOT = 0

