STARLINK-36050          
1 66602U 25270Q   25349.33335648  .00022100  00000+0  53492-3 0  9994
2 66602  42.9997 177.7381 0001938 251.7819 160.3774 15.40691298  4715
STARLINK-36048          
1 66603U 25270R   25348.85552625 -.00192289  00000+0 -34237-2 0  9990
2 66603  42.9992 180.2932 0003639 268.8194  91.2249 15.49982090  4572
STARLINK-35977          
1 66604U 25270S   25349.24157352  .00049491  00000+0  84363-3 0  9993
2 66604  42.9989 178.0309 0001447 284.8784  75.1916 15.50594552  4734
STARLINK-36052          
1 66605U 25270T   25349.24122796  .00066724  00000+0  11327-2 0  9995
2 66605  42.9988 178.0285 0001248 267.4948  92.5770 15.50597887  4730
STARLINK-36063          
1 66606U 25270U   25349.24054040  .00049972  00000+0  85173-3 0  9999
2 66606  42.9989 178.0222 0001602 269.3517  90.7159 15.50593862  4730
STARLINK-35993          
1 66607U 25270V   25349.24088487  .00071550  00000+0  12134-2 0  9995
2 66607  42.9991 178.0256 0001470 264.0151  96.0542 15.50599893  4634
STARLINK-36036          
1 66608U 25270W   25349.24019753  .00058162  00000+0  98919-3 0  9996
2 66608  42.9989 178.0198 0001499 270.0346  90.0343 15.50598473  4570
STARLINK-36034          
1 66609U 25270X   25349.23985535  .00087946  00000+0  14867-2 0  9997
2 66609  42.9987 178.0171 0001506 271.6445  88.4243 15.50605276  4576
STARLINK-35680          
1 66610U 25270Y   25349.23951341  .00088914  00000+0  15030-2 0  9996
2 66610  42.9987 178.0139 0001406 277.0814  82.9886 15.50601850  4847
STARLINK-35583          
1 66611U 25270Z   25349.23916886  .00084898  00000+0  14359-2 0  9992
2 66611  42.9988 178.0114 0001559 272.0910  87.9772 15.50605937  4842
STARLINK-36039          
1 66612U 25270AA  25349.33335648  .00021984  00000+0  53222-3 0  9995
2 66612  42.9999 177.6752 0002297 265.6348 171.4199 15.40687170  4818
STARLINK-36037          
1 66613U 25270AB  25349.33335648  .00022248  00000+0  53849-3 0  9995
2 66613  42.9997 177.6152 0001701 265.3697 196.5590 15.40688506  4811
